STARLINK-32092          
1 59700U 24086U   26068.05343544  .00000253  00000+0  18739-4 0  9992
2 59700  43.0043  63.5881 0001603 271.6873  88.3795 15.27581312104013
FOSSASAT-2E20 (TAT-O)   
1 63003U 25009DN  26068.70855016  .00016337  00000+0  61863-3 0  9998
2 63003  97.3231 146.2859 0002189 347.5575  12.5610 15.26991080121314
